COSMOS 2425 (716)       
1 29670U 06062A   21199.32140597  .00000053  00000-0  00000-0 0  9999
2 29670  64.8343 254.4065 0023919 340.5386  93.0256  2.13117006113330
COSMOS 2433 (720)       
1 32275U 07052A   21200.91147034 -.00000038  00000-0  00000-0 0  9999
2 32275  66.0639  15.7075 0001346 175.9983 209.4755  2.13104303106884
COSMOS 2432 (719)       
1 32276U 07052B   21200.52757550 -.00000036  00000-0  00000-0 0  9995
2 32276  66.0836  15.8153 0008596 342.3411  57.8383  2.13103625106879
COSMOS 2434 (721)       
1 32393U 07065A   21200.67448902  .00000067  00000-0  00000-0 0  9996
2 32393  64.4520 252.8045 0001726 131.2450 320.9142  2.13103222105587
COSMOS 2436 (723)       
1 32395U 07065C   21200.40852207  .00000065  00000-0  00000-0 0  9994
2 32395  64.4603 252.8674 0013869 354.0539  30.1539  2.13103114105516
COSMOS 2456 (730)       
1 36111U 09070A   21200.70849271 -.00000008  00000-0  00000-0 0  9990
2 36111  64.2812 132.4758 0005395 309.8395 338.5241  2.13099382 90244
COSMOS 2457 (733)       
1 36112U 09070B   21200.87190123 -.00000010  00000-0  00000-0 0  9997
2 36112  64.2642 132.3560 0004259 182.8323 355.5343  2.13101618 90253
COSMOS 2459 (731)       
1 36400U 10007A   21200.66436147 -.00000038  00000-0  00000-0 0  9995
2 36400  65.9652  14.6353 0025336 352.2911  61.6183  2.13108724 88595
COSMOS 2461 (735)       
1 36401U 10007B   21201.32894101 -.00000041  00000-0  00000+0 0  9991
2 36401  65.9579  14.5768 0020172  14.3780 189.2688  2.13103783 88616
COSMOS 2460 (732)       
1 36402U 10007C   21201.20374219 -.00000041  00000-0  00000+0 0  9992
2 36402  65.9455  14.5382 0002680  92.0645 320.6561  2.13106601 88612
COSMOS 2464 (736)       
1 37139U 10041C   21200.90868330  .00000069  00000-0  00000-0 0  9996
2 37139  64.0520 252.0377 0026595   7.4129 125.0872  2.13100843 84669
COSMOS 2471 (701K)      
1 37372U 11009A   21200.53065416 -.00000037  00000-0  00000-0 0  9999
2 37372  65.9376  14.4878 0014623 224.8580 175.6738  2.13052459 80878
COSMOS 2476 (744)       
1 37867U 11064A   21200.78266403 -.00000007  00000-0  00000-0 0  9992
2 37867  64.5763 133.7002 0021282 240.0989   7.7942  2.13101902 75591
COSMOS 2477 (745)       
1 37868U 11064B   21200.50711226 -.00000003  00000-0  00000-0 0  9997
2 37868  64.5847 133.7697 0018918 241.5489 333.2562  2.13101863 75544
COSMOS 2475 (743)       
1 37869U 11064C   21201.49179964 -.00000015  00000-0  00000+0 0  9996
2 37869  64.5914 133.7419 0023281 259.7724 308.1725  2.13102160 75570
COSMOS 2485 (747)       
1 39155U 13019A   21201.48343271 -.00000014  00000-0  00000+0 0  9990
2 39155  64.7419 134.0318 0022032 236.4191 233.5460  2.13102038 64082
COSMOS 2492 (754)       
1 39620U 14012A   21200.91482913 -.00000040  00000-0  00000-0 0  9995
2 39620  65.8320  14.2752 0011422 333.3992  95.1367  2.13103310 57028
COSMOS 2500 (755)       
1 40001U 14032A   21200.59702672 -.00000038  00000-0  00000-0 0  9990
2 40001  65.7746  14.1736 0005934 180.2487 224.0434  2.13102506 55239
COSMOS 2501 (702K)      
1 40315U 14075A   21200.70474843  .00000066  00000-0  00000-0 0  9994
2 40315  63.7621 252.8417 0018462 211.2183  82.2041  2.13101557 51635
COSMOS 2514 (751)       
1 41330U 16008A   21200.72437407 -.00000040  00000-0  00000-0 0  9990
2 41330  65.5763  13.9413 0009054 198.3346 126.8473  2.13102965 42396
COSMOS 2516 (753)       
1 41554U 16032A   21201.24288374  .00000069  00000-0  00000+0 0  9999
2 41554  63.9882 253.0032 0015209 218.7523  40.1422  2.13107218 40010
COSMOS 2522 (752)       
1 42939U 17055A   21200.50191487  .00000064  00000-0  00000-0 0  9995
2 42939  64.2220 253.3272 0009178 242.9588  29.9132  2.13101993 29750
COSMOS 2527 (756)       
1 43508U 18053A   21200.80516574 -.00000006  00000-0  00000-0 0  9995
2 43508  64.9062 133.9860 0008395 238.8073 298.8153  2.13102582 24056
COSMOS 2529 (757)       
1 43687U 18086A   21200.88716017  .00000066  00000-0  00000-0 0  9996
2 43687  64.4356 253.5394 0011195 264.4437 259.5469  2.13102195 21070
COSMOS 2534 (758)       
1 44299U 19030A   21200.56997563  .00000065  00000-0  00000-0 0  9997
2 44299  64.5076 253.4053 0013665 282.7543 132.7250  2.13102155 16717
COSMOS 2544 (759)       
1 44850U 19088A   21200.91088137 -.00000008  00000-0  00000-0 0  9998
2 44850  64.8909 133.8414 0013228 265.6235  36.8323  2.13102328 12480
COSMOS 2545 (760)       
1 45358U 20018A   21200.72001071 -.00000041  00000-0  00000-0 0  9995
2 45358  64.9078  14.8241 0006607 239.2854 126.7123  2.13102786 10444
